{
  "type": "FeatureCollection",
  "features": [
    {
      "type": "Feature",
      "properties": {
        "norad_id": 31202,
        "name": "FENGYUN 1C DEB",
        "group": "fengyun-1c-debris",
        "lat": 60.24680131594882,
        "lon": 32.05955585591076,
        "alt_km": 592.3851005895885,
        "timestamp": "2025-12-26T22:28:06.065519+00:00",
        "meta_object_name": "FENGYUN 1C DEB",
        "meta_object_id": "1999-025BKG",
        "meta_epoch": "2025-12-25T22:29:25.279296",
        "meta_mean_motion": 14.84281886,
        "meta_eccentricity": 0.0069123,
        "meta_inclination": 96.5713,
        "meta_ra_of_asc_node": 42.8699,
        "meta_arg_of_pericenter": 133.3453,
        "meta_mean_anomaly": 353.1903,
        "meta_ephemeris_type": 0,
        "meta_classification_type": "U",
        "meta_norad_cat_id": 31202,
        "meta_element_set_no": 999,
        "meta_rev_at_epoch": 99350,
        "meta_bstar": 0.00082142,
        "meta_mean_motion_dot": 7.146e-05,
        "meta_mean_motion_ddot": 0,
        "tle_line1": "1 31202U 99025BKG 25359.93709814  .00007146  00000+0  82142-3 0  9995",
        "tle_line2": "2 31202  96.5713  42.8699 0069123 133.3453 353.1903 14.84281886993502"
      },
      "geometry": {
        "type": "Point",
        "coordinates": [
          32.05955585591076,
          60.24680131594882
        ]
      }
    },
    {
      "type": "Feature",
      "properties": {
        "norad_id": 31205,
        "name": "FENGYUN 1C DEB",
        "group": "fengyun-1c-debris",
        "lat": 10.938803375743158,
        "lon": -83.39770621384628,
        "alt_km": 698.947915289732,
        "timestamp": "2025-12-26T22:28:06.065529+00:00",
        "meta_object_name": "FENGYUN 1C DEB",
        "meta_object_id": "1999-025BKK",
        "meta_epoch": "2025-12-25T17:00:52.664832",
        "meta_mean_motion": 14.23968458,
        "meta_eccentricity": 0.01624056,
        "meta_inclination": 99.2283,
        "meta_ra_of_asc_node": 93.5137,
        "meta_arg_of_pericenter": 160.4594,
        "meta_mean_anomaly": 200.2906,
        "meta_ephemeris_type": 0,
        "meta_classification_type": "U",
        "meta_norad_cat_id": 31205,
        "meta_element_set_no": 999,
        "meta_rev_at_epoch": 97395,
        "meta_bstar": 0.00016011573,
        "meta_mean_motion_dot": 3.71e-06,
        "meta_mean_motion_ddot": 0,
        "tle_line1": "1 31205U 99025BKK 25359.70894288  .00000371  00000+0  16012-3 0  9999",
        "tle_line2": "2 31205  99.2283  93.5137 0162405 160.4594 200.2906 14.23968458973953"
      },
      "geometry": {
        "type": "Point",
        "coordinates": [
          -83.39770621384628,
          10.938803375743158
        ]
      }
    },
    {
      "type": "Feature",
      "properties": {
        "norad_id": 31206,
        "name": "FENGYUN 1C DEB",
        "group": "fengyun-1c-debris",
        "lat": -44.38204551293877,
        "lon": -81.8997412267139,
        "alt_km": 708.4404418268632,
        "timestamp": "2025-12-26T22:28:06.065540+00:00",
        "meta_object_name": "FENGYUN 1C DEB",
        "meta_object_id": "1999-025BKL",
        "meta_epoch": "2025-12-24T23:59:57.530688",
        "meta_mean_motion": 14.40556471,
        "meta_eccentricity": 0.00771462,
        "meta_inclination": 98.8439,
        "meta_ra_of_asc_node": 267.3353,
        "meta_arg_of_pericenter": 325.6576,
        "meta_mean_anomaly": 33.9638,
        "meta_ephemeris_type": 0,
        "meta_classification_type": "U",
        "meta_norad_cat_id": 31206,
        "meta_element_set_no": 999,
        "meta_rev_at_epoch": 98022,
        "meta_bstar": 0.00081920612,
        "meta_mean_motion_dot": 2.654e-05,
        "meta_mean_motion_ddot": 0,
        "tle_line1": "1 31206U 99025BKL 25358.99997142  .00002654  00000+0  81921-3 0  9990",
        "tle_line2": "2 31206  98.8439 267.3353 0077146 325.6576  33.9638 14.40556471980223"
      },
      "geometry": {
        "type": "Point",
        "coordinates": [
          -81.8997412267139,
          -44.38204551293877
        ]
      }
    },
    {
      "type": "Feature",
      "properties": {
        "norad_id": 31208,
        "name": "FENGYUN 1C DEB",
        "group": "fengyun-1c-debris",
        "lat": -40.76701961174939,
        "lon": -41.76634796699471,
        "alt_km": 680.0634129175196,
        "timestamp": "2025-12-26T22:28:06.065550+00:00",
        "meta_object_name": "FENGYUN 1C DEB",
        "meta_object_id": "1999-025BKN",
        "meta_epoch": "2025-12-13T08:25:55.088256",
        "meta_mean_motion": 14.61862471,
        "meta_eccentricity": 0.00160842,
        "meta_inclination": 99.2396,
        "meta_ra_of_asc_node": 131.1249,
        "meta_arg_of_pericenter": 265.8015,
        "meta_mean_anomaly": 126.2818,
        "meta_ephemeris_type": 0,
        "meta_classification_type": "U",
        "meta_norad_cat_id": 31208,
        "meta_element_set_no": 999,
        "meta_rev_at_epoch": 70488,
        "meta_bstar": 0.0052061327,
        "meta_mean_motion_dot": 0.00026113,
        "meta_mean_motion_ddot": 0,
        "tle_line1": "1 31208U 99025BKN 25347.35133204  .00026113  00000+0  52061-2 0  9999",
        "tle_line2": "2 31208  99.2396 131.1249 0016084 265.8015 126.2818 14.61862471704886"
      },
      "geometry": {
        "type": "Point",
        "coordinates": [
          -41.76634796699471,
          -40.76701961174939
        ]
      }
    },
    {
      "type": "Feature",
      "properties": {
        "norad_id": 31209,
        "name": "FENGYUN 1C DEB",
        "group": "fengyun-1c-debris",
        "lat": -12.359302331047543,
        "lon": -85.33481189340414,
        "alt_km": 755.1277485974551,
        "timestamp": "2025-12-26T22:28:06.065561+00:00",
        "meta_object_name": "FENGYUN 1C DEB",
        "meta_object_id": "1999-025BKP",
        "meta_epoch": "2025-12-26T13:15:39.939840",
        "meta_mean_motion": 14.43705926,
        "meta_eccentricity": 0.00226047,
        "meta_inclination": 98.8829,
        "meta_ra_of_asc_node": 96.2289,
        "meta_arg_of_pericenter": 299.7729,
        "meta_mean_anomaly": 60.1212,
        "meta_ephemeris_type": 0,
        "meta_classification_type": "U",
        "meta_norad_cat_id": 31209,
        "meta_element_set_no": 999,
        "meta_rev_at_epoch": 65007,
        "meta_bstar": 0.0027563883,
        "meta_mean_motion_dot": 9.358e-05,
        "meta_mean_motion_ddot": 0,
        "tle_line1": "1 31209U 99025BKP 25360.55254560  .00009358  00000+0  27564-2 0  9998",
        "tle_line2": "2 31209  98.8829  96.2289 0022604 299.7729  60.1212 14.43705926650077"
      },
      "geometry": {
        "type": "Point",
        "coordinates": [
          -85.33481189340414,
          -12.359302331047543
        ]
      }
    },
    {
      "type": "Feature",
      "properties": {
        "norad_id": 31210,
        "name": "FENGYUN 1C DEB",
        "group": "fengyun-1c-debris",
        "lat": -62.42266524351677,
        "lon": 164.48509656181065,
        "alt_km": 867.4532108389167,
        "timestamp": "2025-12-26T22:28:06.065571+00:00",
        "meta_object_name": "FENGYUN 1C DEB",
        "meta_object_id": "1999-025BKQ",
        "meta_epoch": "2025-12-20T05:44:41.256096",
        "meta_mean_motion": 14.12005396,
        "meta_eccentricity": 0.0017465,
        "meta_inclination": 98.7185,
        "meta_ra_of_asc_node": 355.0606,
        "meta_arg_of_pericenter": 134.4184,
        "meta_mean_anomaly": 286.6721,
        "meta_ephemeris_type": 0,
        "meta_classification_type": "U",
        "meta_norad_cat_id": 31210,
        "meta_element_set_no": 999,
        "meta_rev_at_epoch": 96073,
        "meta_bstar": 0.00028459,
        "meta_mean_motion_dot": 4.79e-06,
        "meta_mean_motion_ddot": 0,
        "tle_line1": "1 31210U 99025BKQ 25354.23936639  .00000479  00000+0  28459-3 0  9992",
        "tle_line2": "2 31210  98.7185 355.0606 0017465 134.4184 286.6721 14.12005396960738"
      },
      "geometry": {
        "type": "Point",
        "coordinates": [
          164.48509656181065,
          -62.42266524351677
        ]
      }
    },
    {
      "type": "Feature",
      "properties": {
        "norad_id": 31211,
        "name": "FENGYUN 1C DEB",
        "group": "fengyun-1c-debris",
        "lat": 80.10234803407376,
        "lon": -24.441377981315327,
        "alt_km": 788.4539861349303,
        "timestamp": "2025-12-26T22:28:06.065581+00:00",
        "meta_object_name": "FENGYUN 1C DEB",
        "meta_object_id": "1999-025BKR",
        "meta_epoch": "2025-12-22T19:59:46.021056",
        "meta_mean_motion": 14.20094058,
        "meta_eccentricity": 0.0050213,
        "meta_inclination": 98.6718,
        "meta_ra_of_asc_node": 32.542,
        "meta_arg_of_pericenter": 60.4625,
        "meta_mean_anomaly": 300.1545,
        "meta_ephemeris_type": 0,
        "meta_classification_type": "U",
        "meta_norad_cat_id": 31211,
        "meta_element_set_no": 999,
        "meta_rev_at_epoch": 63436,
        "meta_bstar": 0.00098818,
        "meta_mean_motion_dot": 2.09e-05,
        "meta_mean_motion_ddot": 0,
        "tle_line1": "1 31211U 99025BKR 25356.83317154  .00002090  00000+0  98818-3 0  9993",
        "tle_line2": "2 31211  98.6718  32.5420 0050213  60.4625 300.1545 14.20094058634362"
      },
      "geometry": {
        "type": "Point",
        "coordinates": [
          -24.441377981315327,
          80.10234803407376
        ]
      }
    }
  ]
}